{
  "type": "FeatureCollection",
  "features": [
    {
      "type": "Feature",
      "properties": {
        "norad_id": 31431,
        "name": "FENGYUN 1C DEB",
        "group": "fengyun-1c-debris",
        "lat": -18.312767119158316,
        "lon": 44.159183075556015,
        "alt_km": 869.3425652922442,
        "timestamp": "2025-12-04T07:39:36.417169+00:00",
        "meta_object_name": "FENGYUN 1C DEB",
        "meta_object_id": "1999-025BTT",
        "meta_epoch": "2025-12-03T03:20:44.429568",
        "meta_mean_motion": 14.03009216,
        "meta_eccentricity": 0.01328889,
        "meta_inclination": 98.5398,
        "meta_ra_of_asc_node": 225.9023,
        "meta_arg_of_pericenter": 122.3237,
        "meta_mean_anomaly": 239.088,
        "meta_ephemeris_type": 0,
        "meta_classification_type": "U",
        "meta_norad_cat_id": 31431,
        "meta_element_set_no": 999,
        "meta_rev_at_epoch": 94397,
        "meta_bstar": 0.0016680397,
        "meta_mean_motion_dot": 2.762e-05,
        "meta_mean_motion_ddot": 0,
        "tle_line1": "1 31431U 99025BTT 25337.13940312  .00002762  00000+0  16680-2 0  9999",
        "tle_line2": "2 31431  98.5398 225.9023 0132888 122.3237 239.0880 14.03009216943977"
      },
      "geometry": {
        "type": "Point",
        "coordinates": [
          44.159183075556015,
          -18.312767119158316
        ]
      }
    },
    {
      "type": "Feature",
      "properties": {
        "norad_id": 31433,
        "name": "FENGYUN 1C DEB",
        "group": "fengyun-1c-debris",
        "lat": 9.763545960500634,
        "lon": 63.59083879434581,
        "alt_km": 840.7046984258559,
        "timestamp": "2025-12-04T07:39:36.417178+00:00",
        "meta_object_name": "FENGYUN 1C DEB",
        "meta_object_id": "1999-025BTV",
        "meta_epoch": "2025-12-03T12:55:13.077984",
        "meta_mean_motion": 14.25250395,
        "meta_eccentricity": 0.01000949,
        "meta_inclination": 98.4109,
        "meta_ra_of_asc_node": 241.3832,
        "meta_arg_of_pericenter": 55.7975,
        "meta_mean_anomaly": 69.1184,
        "meta_ephemeris_type": 0,
        "meta_classification_type": "U",
        "meta_norad_cat_id": 31433,
        "meta_element_set_no": 999,
        "meta_rev_at_epoch": 95421,
        "meta_bstar": 0.0034087262,
        "meta_mean_motion_dot": 8.416e-05,
        "meta_mean_motion_ddot": 0,
        "tle_line1": "1 31433U 99025BTV 25337.53834581  .00008416  00000+0  34087-2 0  9998",
        "tle_line2": "2 31433  98.4109 241.3832 0100094  55.7975  69.1184 14.25250395954218"
      },
      "geometry": {
        "type": "Point",
        "coordinates": [
          63.59083879434581,
          9.763545960500634
        ]
      }
    },
    {
      "type": "Feature",
      "properties": {
        "norad_id": 31435,
        "name": "FENGYUN 1C DEB",
        "group": "fengyun-1c-debris",
        "lat": 64.4332224098652,
        "lon": -11.082311824357252,
        "alt_km": 709.4016051469489,
        "timestamp": "2025-12-04T07:39:36.417187+00:00",
        "meta_object_name": "FENGYUN 1C DEB",
        "meta_object_id": "1999-025BTX",
        "meta_epoch": "2025-12-03T17:54:29.292768",
        "meta_mean_motion": 14.53396512,
        "meta_eccentricity": 0.01486288,
        "meta_inclination": 99.0374,
        "meta_ra_of_asc_node": 148.8682,
        "meta_arg_of_pericenter": 207.1752,
        "meta_mean_anomaly": 152.1608,
        "meta_ephemeris_type": 0,
        "meta_classification_type": "U",
        "meta_norad_cat_id": 31435,
        "meta_element_set_no": 999,
        "meta_rev_at_epoch": 98242,
        "meta_bstar": 0.00043649672,
        "meta_mean_motion_dot": 2.041e-05,
        "meta_mean_motion_ddot": 0,
        "tle_line1": "1 31435U 99025BTX 25337.74617237  .00002041  00000+0  43650-3 0  9995",
        "tle_line2": "2 31435  99.0374 148.8682 0148628 207.1752 152.1608 14.53396512982427"
      },
      "geometry": {
        "type": "Point",
        "coordinates": [
          -11.082311824357252,
          64.4332224098652
        ]
      }
    },
    {
      "type": "Feature",
      "properties": {
        "norad_id": 31436,
        "name": "FENGYUN 1C DEB",
        "group": "fengyun-1c-debris",
        "lat": -48.3672054716126,
        "lon": -159.68271159724551,
        "alt_km": 573.3559991470956,
        "timestamp": "2025-12-04T07:39:36.417196+00:00",
        "meta_object_name": "FENGYUN 1C DEB",
        "meta_object_id": "1999-025BTY",
        "meta_epoch": "2025-12-03T12:50:27.126816",
        "meta_mean_motion": 14.92159127,
        "meta_eccentricity": 0.00463769,
        "meta_inclination": 98.8813,
        "meta_ra_of_asc_node": 189.302,
        "meta_arg_of_pericenter": 272.1873,
        "meta_mean_anomaly": 148.5627,
        "meta_ephemeris_type": 0,
        "meta_classification_type": "U",
        "meta_norad_cat_id": 31436,
        "meta_element_set_no": 999,
        "meta_rev_at_epoch": 96739,
        "meta_bstar": 0.0067897062,
        "meta_mean_motion_dot": 0.00071147,
        "meta_mean_motion_ddot": 0,
        "tle_line1": "1 31436U 99025BTY 25337.53503619  .00071147  00000+0  67897-2 0  9992",
        "tle_line2": "2 31436  98.8813 189.3020 0046376 272.1873 148.5627 14.92159127967393"
      },
      "geometry": {
        "type": "Point",
        "coordinates": [
          -159.68271159724551,
          -48.3672054716126
        ]
      }
    },
    {
      "type": "Feature",
      "properties": {
        "norad_id": 31437,
        "name": "FENGYUN 1C DEB",
        "group": "fengyun-1c-debris",
        "lat": -76.88965299023367,
        "lon": 101.14084071890089,
        "alt_km": 747.8459367496453,
        "timestamp": "2025-12-04T07:39:36.417205+00:00",
        "meta_object_name": "FENGYUN 1C DEB",
        "meta_object_id": "1999-025BTZ",
        "meta_epoch": "2025-12-03T03:43:35.676192",
        "meta_mean_motion": 14.42268403,
        "meta_eccentricity": 0.00147172,
        "meta_inclination": 98.8658,
        "meta_ra_of_asc_node": 57.8503,
        "meta_arg_of_pericenter": 275.1536,
        "meta_mean_anomaly": 84.7972,
        "meta_ephemeris_type": 0,
        "meta_classification_type": "U",
        "meta_norad_cat_id": 31437,
        "meta_element_set_no": 999,
        "meta_rev_at_epoch": 96372,
        "meta_bstar": 0.0031577834,
        "meta_mean_motion_dot": 0.00010397,
        "meta_mean_motion_ddot": 0,
        "tle_line1": "1 31437U 99025BTZ 25337.15527403  .00010397  00000+0  31578-2 0  9995",
        "tle_line2": "2 31437  98.8658  57.8503 0014717 275.1536  84.7972 14.42268403963729"
      },
      "geometry": {
        "type": "Point",
        "coordinates": [
          101.14084071890089,
          -76.88965299023367
        ]
      }
    },
    {
      "type": "Feature",
      "properties": {
        "norad_id": 31439,
        "name": "FENGYUN 1C DEB",
        "group": "fengyun-1c-debris",
        "lat": 42.958326985065135,
        "lon": -23.791870101436004,
        "alt_km": 983.2114630127835,
        "timestamp": "2025-12-04T07:39:36.417214+00:00",
        "meta_object_name": "FENGYUN 1C DEB",
        "meta_object_id": "1999-025BUB",
        "meta_epoch": "2025-12-03T18:31:58.136160",
        "meta_mean_motion": 13.95552286,
        "meta_eccentricity": 0.01375894,
        "meta_inclination": 98.9169,
        "meta_ra_of_asc_node": 344.0849,
        "meta_arg_of_pericenter": 186.3936,
        "meta_mean_anomaly": 351.8228,
        "meta_ephemeris_type": 0,
        "meta_classification_type": "U",
        "meta_norad_cat_id": 31439,
        "meta_element_set_no": 999,
        "meta_rev_at_epoch": 63107,
        "meta_bstar": 0.0011086732,
        "meta_mean_motion_dot": 1.589e-05,
        "meta_mean_motion_ddot": 0,
        "tle_line1": "1 31439U 99025BUB 25337.77220065  .00001589  00000+0  11087-2 0  9995",
        "tle_line2": "2 31439  98.9169 344.0849 0137589 186.3936 351.8228 13.95552286631077"
      },
      "geometry": {
        "type": "Point",
        "coordinates": [
          -23.791870101436004,
          42.958326985065135
        ]
      }
    },
    {
      "type": "Feature",
      "properties": {
        "norad_id": 31440,
        "name": "FENGYUN 1C DEB",
        "group": "fengyun-1c-debris",
        "lat": -2.569872361946051,
        "lon": -114.20900173832693,
        "alt_km": 799.3611354298782,
        "timestamp": "2025-12-04T07:39:36.417223+00:00",
        "meta_object_name": "FENGYUN 1C DEB",
        "meta_object_id": "1999-025BUC",
        "meta_epoch": "2025-12-02T04:39:51.729408",
        "meta_mean_motion": 14.36510307,
        "meta_eccentricity": 0.00367739,
        "meta_inclination": 98.7469,
        "meta_ra_of_asc_node": 64.0297,
        "meta_arg_of_pericenter": 14.8999,
        "meta_mean_anomaly": 345.3261,
        "meta_ephemeris_type": 0,
        "meta_classification_type": "U",
        "meta_norad_cat_id": 31440,
        "meta_element_set_no": 999,
        "meta_rev_at_epoch": 96174,
        "meta_bstar": 0.0021635441,
        "meta_mean_motion_dot": 6.36e-05,
        "meta_mean_motion_ddot": 0,
        "tle_line1": "1 31440U 99025BUC 25336.19434872  .00006360  00000+0  21635-2 0  9997",
        "tle_line2": "2 31440  98.7469  64.0297 0036773  14.8999 345.3261 14.36510307961742"
      },
      "geometry": {
        "type": "Point",
        "coordinates": [
          -114.20900173832693,
          -2.569872361946051
        ]
      }
    }
  ]
}